STARLINK-31234          
1 59043U 24038W   26068.21569100  .00000239  00000+0  18224-4 0  9998
2 59043  43.0028  26.4213 0000775 289.2541  70.8227 15.27568027114610
FLOCK 4G-27             
1 62641U 25009AJ  26068.75406453  .00012587  00000+0  47455-3 0  9991
2 62641  97.3976 150.8631 0000756 322.4974  37.6212 15.27199247 63710
